{"type": "FeatureCollection", "features": [ {"type": "Feature", "properties": {"norad_id": 38487, "name": "COSMOS 2251 DEB", "group": "cosmos-2251-debris", "lat": -59.86132078276835, "lon": 17.43046946330591, "alt_km": 519.0391738952121, "timestamp": "2025-12-06T09:34:17.312300+00:00", "meta": {"OBJECT_NAME": "COSMOS 2251 DEB", "OBJECT_ID": "1993-036BTX", "EPOCH": "2025-12-03T21:41:13.895520", "MEAN_MOTION": 15.16226661, "ECCENTRICITY": 0.00230827, "INCLINATION": 73.974, "RA_OF_ASC_NODE": 52.3246, "ARG_OF_PERICENTER": 225.1872, "MEAN_ANOMALY": 134.7448, "EPHEMERIS_TYPE": 0, "CLASSIFICATION_TYPE": "U", "NORAD_CAT_ID": 38487, "ELEMENT_SET_NO": 999, "REV_AT_EPOCH": 66666, "BSTAR": 0.0042718994, "MEAN_MOTION_DOT": 0.0008408, "MEAN_MOTION_DDOT": 0}, "tle": {"line1": "1 38487U 93036BTX 25337.90363305  .00084080  00000+0  42719-2 0  9994", "line2": "2 38487  73.9740  52.3246 0023082 225.1872 134.7448 15.16226661666663"}}, "geometry": {"type": "Point", "coordinates": [17.43046946330591, -59.86132078276835]}}, {"type": "Feature", "properties": {"norad_id": 39109, "name": "COSMOS 2251 DEB", "group": "cosmos-2251-debris", "lat": -21.492183664002745, "lon": 63.85704672581517, "alt_km": 694.1743298819147, "timestamp": "2025-12-06T09:34:17.312311+00:00", "meta": {"OBJECT_NAME": "COSMOS 2251 DEB", "OBJECT_ID": "1993-036BTY", "EPOCH": "2025-11-13T05:50:34.179360", "MEAN_MOTION": 14.70365272, "ECCENTRICITY": 0.0058425, "INCLINATION": 74.0424, "RA_OF_ASC_NODE": 282.2926, "ARG_OF_PERICENTER": 32.7567, "MEAN_ANOMALY": 29.6254, "EPHEMERIS_TYPE": 0, "CLASSIFICATION_TYPE": "U", "NORAD_CAT_ID": 39109, "ELEMENT_SET_NO": 999, "REV_AT_EPOCH": 64740, "BSTAR": 0.0018778, "MEAN_MOTION_DOT": 0.00011647, "MEAN_MOTION_DDOT": 0}, "tle": {"line1": "1 39109U 93036BTY 25317.24345115  .00011647  00000+0  18778-2 0  9997", "line2": "2 39109  74.0424 282.2926 0058425  32.7567  29.6254 14.70365272647406"}}, "geometry": {"type": "Point", "coordinates": [63.85704672581517, -21.492183664002745]}}, {"type": "Feature", "properties": {"norad_id": 39110, "name": "COSMOS 2251 DEB", "group": "cosmos-2251-debris", "lat": -20.981421709268606, "lon": 67.56831987975212, "alt_km": 600.4098379670104, "timestamp": "2025-12-06T09:34:17.312321+00:00", "meta": {"OBJECT_NAME": "COSMOS 2251 DEB", "OBJECT_ID": "1993-036BTZ", "EPOCH": "2025-12-03T13:14:13.055136", "MEAN_MOTION": 14.72215365, "ECCENTRICITY": 0.00964609, "INCLINATION": 73.9598, "RA_OF_ASC_NODE": 79.4668, "ARG_OF_PERICENTER": 313.6965, "MEAN_ANOMALY": 59.6182, "EPHEMERIS_TYPE": 0, "CLASSIFICATION_TYPE": "U", "NORAD_CAT_ID": 39110, "ELEMENT_SET_NO": 999, "REV_AT_EPOCH": 62349, "BSTAR": 0.00066560445, "MEAN_MOTION_DOT": 4.484e-05, "MEAN_MOTION_DDOT": 0}, "tle": {"line1": "1 39110U 93036BTZ 25337.55153999  .00004484  00000+0  66560-3 0  9996", "line2": "2 39110  73.9598  79.4668 0096460 313.6965  59.6182 14.72215365623496"}}, "geometry": {"type": "Point", "coordinates": [67.56831987975212, -20.981421709268606]}}, {"type": "Feature", "properties": {"norad_id": 39111, "name": "COSMOS 2251 DEB", "group": "cosmos-2251-debris", "lat": 47.22655240615339, "lon": 72.38145573860788, "alt_km": 516.2133089799654, "timestamp": "2025-12-06T09:34:17.312331+00:00", "meta": {"OBJECT_NAME": "COSMOS 2251 DEB", "OBJECT_ID": "1993-036BUA", "EPOCH": "2025-12-01T22:58:55.551360", "MEAN_MOTION": 15.11912111, "ECCENTRICITY": 0.00109111, "INCLINATION": 74.0059, "RA_OF_ASC_NODE": 63.5328, "ARG_OF_PERICENTER": 39.1207, "MEAN_ANOMALY": 321.0773, "EPHEMERIS_TYPE": 0, "CLASSIFICATION_TYPE": "U", "NORAD_CAT_ID": 39111, "ELEMENT_SET_NO": 999, "REV_AT_EPOCH": 8982, "BSTAR": 0.0056424119, "MEAN_MOTION_DOT": 0.00098096, "MEAN_MOTION_DDOT": 0}, "tle": {"line1": "1 39111U 93036BUA 25335.95758740  .00098096  00000+0  56424-2 0  9993", "line2": "2 39111  74.0059  63.5328 0010911  39.1207 321.0773 15.11912111 89826"}}, "geometry": {"type": "Point", "coordinates": [72.38145573860788, 47.22655240615339]}}, {"type": "Feature", "properties": {"norad_id": 39546, "name": "COSMOS 2251 DEB", "group": "cosmos-2251-debris", "lat": -61.50990738899133, "lon": 117.62696006396581, "alt_km": 570.131945713295, "timestamp": "2025-12-06T09:34:17.312341+00:00", "meta": {"OBJECT_NAME": "COSMOS 2251 DEB", "OBJECT_ID": "1993-036BUC", "EPOCH": "2025-12-01T05:55:26.467104", "MEAN_MOTION": 14.91578832, "ECCENTRICITY": 0.0043624, "INCLINATION": 73.9966, "RA_OF_ASC_NODE": 159.9082, "ARG_OF_PERICENTER": 321.5487, "MEAN_ANOMALY": 38.2588, "EPHEMERIS_TYPE": 0, "CLASSIFICATION_TYPE": "U", "NORAD_CAT_ID": 39546, "ELEMENT_SET_NO": 999, "REV_AT_EPOCH": 64265, "BSTAR": 0.0014755, "MEAN_MOTION_DOT": 0.00015069, "MEAN_MOTION_DDOT": 0}, "tle": {"line1": "1 39546U 93036BUC 25335.24683411  .00015069  00000+0  14755-2 0  9999", "line2": "2 39546  73.9966 159.9082 0043624 321.5487  38.2588 14.91578832642657"}}, "geometry": {"type": "Point", "coordinates": [117.62696006396581, -61.50990738899133]}}, {"type": "Feature", "properties": {"norad_id": 39547, "name": "COSMOS 2251 DEB", "group": "cosmos-2251-debris", "lat": 30.338317573580177, "lon": 41.02552978902105, "alt_km": 554.1522847440183, "timestamp": "2025-12-06T09:34:17.312351+00:00", "meta": {"OBJECT_NAME": "COSMOS 2251 DEB", "OBJECT_ID": "1993-036BUD", "EPOCH": "2025-12-03T13:00:45.154656", "MEAN_MOTION": 15.02302786, "ECCENTRICITY": 0.00042429, "INCLINATION": 74.0034, "RA_OF_ASC_NODE": 37.1966, "ARG_OF_PERICENTER": 32.7334, "MEAN_ANOMALY": 34.8564, "EPHEMERIS_TYPE": 0, "CLASSIFICATION_TYPE": "U", "NORAD_CAT_ID": 39547, "ELEMENT_SET_NO": 999, "REV_AT_EPOCH": 63887, "BSTAR": 0.0034470262, "MEAN_MOTION_DOT": 0.00045816, "MEAN_MOTION_DDOT": 0}, "tle": {"line1": "1 39547U 93036BUD 25337.54218929  .00045816  00000+0  34470-2 0  9992", "line2": "2 39547  74.0034  37.1966 0004242  32.7334  34.8564 15.02302786638870"}}, "geometry": {"type": "Point", "coordinates": [41.02552978902105, 30.338317573580177]}}, {"type": "Feature", "properties": {"norad_id": 39553, "name": "COSMOS 2251 DEB", "group": "cosmos-2251-debris", "lat": 27.744454920529794, "lon": -10.336838133243779, "alt_km": 888.8372987488565, "timestamp": "2025-12-06T09:34:17.312361+00:00", "meta": {"OBJECT_NAME": "COSMOS 2251 DEB", "OBJECT_ID": "1993-036BUK", "EPOCH": "2025-12-01T17:56:57.014304", "MEAN_MOTION": 13.99866529, "ECCENTRICITY": 0.02013394, "INCLINATION": 74.0297, "RA_OF_ASC_NODE": 349.0518, "ARG_OF_PERICENTER": 127.8246, "MEAN_ANOMALY": 234.1304, "EPHEMERIS_TYPE": 0, "CLASSIFICATION_TYPE": "U", "NORAD_CAT_ID": 39553, "ELEMENT_SET_NO": 999, "REV_AT_EPOCH": 75463, "BSTAR": 0.00053939206, "MEAN_MOTION_DOT": 9.2e-06, "MEAN_MOTION_DDOT": 0}, "tle": {"line1": "1 39553U 93036BUK 25335.74788211  .00000920  00000+0  53939-3 0  9994", "line2": "2 39553  74.0297 349.0518 0201339 127.8246 234.1304 13.99866529754634"}}, "geometry": {"type": "Point", "coordinates": [-10.336838133243779, 27.744454920529794]}}, {"type": "Feature", "properties": {"norad_id": 39554, "name": "COSMOS 2251 DEB", "group": "cosmos-2251-debris", "lat": 59.92510446967463, "lon": -52.617289499721394, "alt_km": 530.9358273052876, "timestamp": "2025-12-06T09:34:17.312372+00:00", "meta": {"OBJECT_NAME": "COSMOS 2251 DEB", "OBJECT_ID": "1993-036BUL", "EPOCH": "2025-11-30T15:36:56.637792", "MEAN_MOTION": 15.08660873, "ECCENTRICITY": 0.0002133, "INCLINATION": 74.0183, "RA_OF_ASC_NODE": 289.5718, "ARG_OF_PERICENTER": 61.0833, "MEAN_ANOMALY": 111.3721, "EPHEMERIS_TYPE": 0, "CLASSIFICATION_TYPE": "U", "NORAD_CAT_ID": 39554, "ELEMENT_SET_NO": 999, "REV_AT_EPOCH": 64202, "BSTAR": 0.0031443, "MEAN_MOTION_DOT": 0.00049575, "MEAN_MOTION_DDOT": 0}, "tle": {"line1": "1 39554U 93036BUL 25334.65065553  .00049575  00000+0  31443-2 0  9995", "line2": "2 39554  74.0183 289.5718 0002133  61.0833 111.3721 15.08660873642025"}}, "geometry": {"type": "Point", "coordinates": [-52.617289499721394, 59.92510446967463]}}, {"type": "Feature", "properties": {"norad_id": 39583, "name": "COSMOS 2251 DEB", "group": "cosmos-2251-debris", "lat": 17.6275485656952, "lon": 74.16378006853455, "alt_km": 773.5111000024554, "timestamp": "2025-12-06T09:34:17.312382+00:00", "meta": {"OBJECT_NAME": "COSMOS 2251 DEB", "OBJECT_ID": "1993-036BUN", "EPOCH": "2025-12-03T11:46:41.592288", "MEAN_MOTION": 14.60101482, "ECCENTRICITY": 0.01362926, "INCLINATION": 73.9344, "RA_OF_ASC_NODE": 265.002, "ARG_OF_PERICENTER": 20.2137, "MEAN_ANOMALY": 340.435, "EPHEMERIS_TYPE": 0, "CLASSIFICATION_TYPE": "U", "NORAD_CAT_ID": 39583, "ELEMENT_SET_NO": 999, "REV_AT_EPOCH": 61644, "BSTAR": 0.0029015409, "MEAN_MOTION_DOT": 0.00015908, "MEAN_MOTION_DDOT": 0}, "tle": {"line1": "1 39583U 93036BUN 25337.49075917  .00015908  00000+0  29015-2 0  9992", "line2": "2 39583  73.9344 265.0020 0136292  20.2137 340.4350 14.60101482616440"}}, "geometry": {"type": "Point", "coordinates": [74.16378006853455, 17.6275485656952]}}, {"type": "Feature", "properties": {"norad_id": 39585, "name": "COSMOS 2251 DEB", "group": "cosmos-2251-debris", "lat": 22.796393534760103, "lon": -39.69981297611645, "alt_km": 668.6342181204918, "timestamp": "2025-12-06T09:34:17.312393+00:00", "meta": {"OBJECT_NAME": "COSMOS 2251 DEB", "OBJECT_ID": "1993-036BUQ", "EPOCH": "2025-11-29T06:16:21.203328", "MEAN_MOTION": 14.58611374, "ECCENTRICITY": 0.00652828, "INCLINATION": 74.0406, "RA_OF_ASC_NODE": 326.9733, "ARG_OF_PERICENTER": 91.8532, "MEAN_ANOMALY": 269.0111, "EPHEMERIS_TYPE": 0, "CLASSIFICATION_TYPE": "U", "NORAD_CAT_ID": 39585, "ELEMENT_SET_NO": 999, "REV_AT_EPOCH": 62324, "BSTAR": 0.00023928135, "MEAN_MOTION_DOT": 1.117e-05, "MEAN_MOTION_DDOT": 0}, "tle": {"line1": "1 39585U 93036BUQ 25333.26135652  .00001117  00000+0  23928-3 0  9993", "line2": "2 39585  74.0406 326.9733 0065282  91.8532 269.0111 14.58611374623244"}}, "geometry": {"type": "Point", "coordinates": [-39.69981297611645, 22.796393534760103]}}]}